[{"OBJECT_NAME":"MESON-1","OBJECT_ID":"2024-043AK","EPOCH":"2026-03-09T21:36:16.481664","MEAN_MOTION":15.29893494,"ECCENTRICITY":0.00095452,"INCLINATION":97.5469,"RA_OF_ASC_NODE":205.2839,"ARG_OF_PERICENTER":227.1432,"MEAN_ANOMALY":132.9007,"EPHEMERIS_TYPE":0,"CLASSIFICATION_TYPE":"U","NORAD_CAT_ID":59131,"ELEMENT_SET_NO":999,"REV_AT_EPOCH":11189,"BSTAR":0.0002974823,"MEAN_MOTION_DOT":8.544e-5,"MEAN_MOTION_DDOT":0},{"OBJECT_NAME":"STARLINK-36138","OBJECT_ID":"2025-294A","EPOCH":"2026-03-09T06:27:19.872000","MEAN_MOTION":15.27539097,"ECCENTRICITY":0.00017311,"INCLINATION":43.0005,"RA_OF_ASC_NODE":40.5564,"ARG_OF_PERICENTER":260.191,"MEAN_ANOMALY":99.8746,"EPHEMERIS_TYPE":0,"CLASSIFICATION_TYPE":"U","NORAD_CAT_ID":67030,"ELEMENT_SET_NO":999,"REV_AT_EPOCH":1473,"BSTAR":0.00090056987,"MEAN_MOTION_DOT":0.00024572,"MEAN_MOTION_DDOT":0}]
